[{"OBJECT_NAME":"ONEWEB-0443","OBJECT_ID":"2022-012R","EPOCH":"2026-03-09T21:35:18.306816","MEAN_MOTION":13.1764927,"ECCENTRICITY":0.00014984,"INCLINATION":87.9152,"RA_OF_ASC_NODE":25.596,"ARG_OF_PERICENTER":84.0075,"MEAN_ANOMALY":276.1227,"EPHEMERIS_TYPE":0,"CLASSIFICATION_TYPE":"U","NORAD_CAT_ID":51637,"ELEMENT_SET_NO":999,"REV_AT_EPOCH":20064,"BSTAR":-0.00053034286,"MEAN_MOTION_DOT":-1.93e-6,"MEAN_MOTION_DDOT":0},{"OBJECT_NAME":"SL-8 R\/B","OBJECT_ID":"1978-122B","EPOCH":"2026-03-09T22:08:45.907584","MEAN_MOTION":13.22164707,"ECCENTRICITY":0.00243144,"INCLINATION":82.9677,"RA_OF_ASC_NODE":244.6432,"ARG_OF_PERICENTER":279.4293,"MEAN_ANOMALY":190.5586,"EPHEMERIS_TYPE":0,"CLASSIFICATION_TYPE":"U","NORAD_CAT_ID":11170,"ELEMENT_SET_NO":999,"REV_AT_EPOCH":25975,"BSTAR":0.00013896554,"MEAN_MOTION_DOT":7.1e-7,"MEAN_MOTION_DDOT":0}]
